OBJECT_NAME,OBJECT_ID,EPOCH,MEAN_MOTION,ECCENTRICITY,INCLINATION,RA_OF_ASC_NODE,ARG_OF_PERICENTER,MEAN_ANOMALY,EPHEMERIS_TYPE,CLASSIFICATION_TYPE,NORAD_CAT_ID,ELEMENT_SET_NO,REV_AT_EPOCH,BSTAR,MEAN_MOTION_DOT,MEAN_MOTION_DDOT
SAUDISAT 1C (SO-50),2002-058C,2026-06-07T17:09:10.888704,14.83027325,.0075448,64.5503,158.2927,264.2145,95.0356,0,U,27607,999,26305,.1649E-3,.1255E-4,0
SAUDISAT 2,2004-025F,2026-06-07T13:11:45.850272,14.56678534,.0024034,98.5506,158.2828,328.9640,31.0136,0,U,28371,999,16434,.88208E-4,.345E-5,0
SAUDISAT 3,2007-012B,2026-06-07T17:43:14.887200,14.71420430,.0013283,98.1452,109.1330,256.6027,103.3699,0,U,31118,999,2635,.63928E-4,.345E-5,0
PISAT,2016-059B,2026-06-07T17:51:22.312800,14.68968105,.0027737,97.8178,159.6027,234.0014,125.8621,0,U,41784,999,51835,.19762E-3,.1117E-4,0
FLYING LAPTOP,2017-042G,2026-06-07T20:28:41.610432,15.01086338,.0019102,97.4657,314.7486,152.1285,208.0967,0,U,42831,999,48505,.33092E-3,.4192E-4,0
SALSAT,2020-068K,2026-06-07T17:25:36.863040,15.29663376,.0008931,97.8853,161.2159,346.1637,13.9356,0,U,46495,999,31391,.29512E-3,.8408E-4,0
